{
  "type": "FeatureCollection",
  "features": [
    {
      "type": "Feature",
      "properties": {
        "norad_id": 31307,
        "name": "GALAXY 17 (G-17)",
        "group": "intelsat",
        "lat": 1.9562728434635863,
        "lon": 133.90209089915976,
        "alt_km": 35794.34498139568,
        "timestamp": "2025-12-06T09:34:16.585357+00:00",
        "meta_object_name": "GALAXY 17 (G-17)",
        "meta_object_id": "2007-016B",
        "meta_epoch": "2025-12-05T21:51:09.893952",
        "meta_mean_motion": 1.00270121,
        "meta_eccentricity": 0.00060923,
        "meta_inclination": 2.4819,
        "meta_ra_of_asc_node": 82.3624,
        "meta_arg_of_pericenter": 159.5421,
        "meta_mean_anomaly": 75.8428,
        "meta_ephemeris_type": 0,
        "meta_classification_type": "U",
        "meta_norad_cat_id": 31307,
        "meta_element_set_no": 999,
        "meta_rev_at_epoch": 6786,
        "meta_bstar": 0,
        "meta_mean_motion_dot": -1.98e-06,
        "meta_mean_motion_ddot": 0,
        "tle_line1": "1 31307U 07016B   25339.91053118 -.00000198  00000+0  00000+0 0  9995",
        "tle_line2": "2 31307   2.4819  82.3624 0006092 159.5421  75.8428  1.00270121 67864"
      },
      "geometry": {
        "type": "Point",
        "coordinates": [
          133.90209089915976,
          1.9562728434635863
        ]
      }
    },
    {
      "type": "Feature",
      "properties": {
        "norad_id": 31862,
        "name": "DIRECTV 10",
        "group": "intelsat",
        "lat": -0.00491597044393322,
        "lon": 116.20247833183534,
        "alt_km": 35785.89639003577,
        "timestamp": "2025-12-06T09:34:16.585368+00:00",
        "meta_object_name": "DIRECTV 10",
        "meta_object_id": "2007-032A",
        "meta_epoch": "2025-12-05T21:46:02.883648",
        "meta_mean_motion": 1.00271472,
        "meta_eccentricity": 3.638e-05,
        "meta_inclination": 0.0045,
        "meta_ra_of_asc_node": 107.8755,
        "meta_arg_of_pericenter": 87.4391,
        "meta_mean_anomaly": 103.363,
        "meta_ephemeris_type": 0,
        "meta_classification_type": "U",
        "meta_norad_cat_id": 31862,
        "meta_element_set_no": 999,
        "meta_rev_at_epoch": 4365,
        "meta_bstar": 0,
        "meta_mean_motion_dot": -9.4e-07,
        "meta_mean_motion_ddot": 0,
        "tle_line1": "1 31862U 07032A   25339.90697782 -.00000094  00000+0  00000+0 0  9994",
        "tle_line2": "2 31862   0.0045 107.8755 0000363  87.4391 103.3630  1.00271472 43656"
      },
      "geometry": {
        "type": "Point",
        "coordinates": [
          116.20247833183534,
          -0.00491597044393322
        ]
      }
    },
    {
      "type": "Feature",
      "properties": {
        "norad_id": 32253,
        "name": "INTELSAT 11 (IS-11)",
        "group": "intelsat",
        "lat": 1.6188122518858479,
        "lon": 112.49337018349136,
        "alt_km": 36158.90842220182,
        "timestamp": "2025-12-06T09:34:16.585380+00:00",
        "meta_object_name": "INTELSAT 11 (IS-11)",
        "meta_object_id": "2007-044B",
        "meta_epoch": "2025-12-05T21:45:40.419648",
        "meta_mean_motion": 0.99047165,
        "meta_eccentricity": 0.00092771,
        "meta_inclination": 3.0614,
        "meta_ra_of_asc_node": 81.0516,
        "meta_arg_of_pericenter": 162.75,
        "meta_mean_anomaly": 53.3508,
        "meta_ephemeris_type": 0,
        "meta_classification_type": "U",
        "meta_norad_cat_id": 32253,
        "meta_element_set_no": 999,
        "meta_rev_at_epoch": 6653,
        "meta_bstar": 0,
        "meta_mean_motion_dot": 4.2e-07,
        "meta_mean_motion_ddot": 0,
        "tle_line1": "1 32253U 07044B   25339.90671782  .00000042  00000+0  00000+0 0  9996",
        "tle_line2": "2 32253   3.0614  81.0516 0009277 162.7500  53.3508  0.99047165 66533"
      },
      "geometry": {
        "type": "Point",
        "coordinates": [
          112.49337018349136,
          1.6188122518858479
        ]
      }
    },
    {
      "type": "Feature",
      "properties": {
        "norad_id": 32388,
        "name": "HORIZONS-2",
        "group": "intelsat",
        "lat": 1.8660591581265118,
        "lon": 145.15436113239406,
        "alt_km": 35797.16572823538,
        "timestamp": "2025-12-06T09:34:16.585391+00:00",
        "meta_object_name": "HORIZONS-2",
        "meta_object_id": "2007-063B",
        "meta_epoch": "2025-12-05T21:54:24.583392",
        "meta_mean_motion": 1.00271306,
        "meta_eccentricity": 0.0005074,
        "meta_inclination": 2.1028,
        "meta_ra_of_asc_node": 83.034,
        "meta_arg_of_pericenter": 183.4842,
        "meta_mean_anomaly": 63.2661,
        "meta_ephemeris_type": 0,
        "meta_classification_type": "U",
        "meta_norad_cat_id": 32388,
        "meta_element_set_no": 999,
        "meta_rev_at_epoch": 6587,
        "meta_bstar": 0,
        "meta_mean_motion_dot": -2.45e-06,
        "meta_mean_motion_ddot": 0,
        "tle_line1": "1 32388U 07063B   25339.91278453 -.00000245  00000+0  00000+0 0  9991",
        "tle_line2": "2 32388   2.1028  83.0340 0005074 183.4842  63.2661  1.00271306 65873"
      },
      "geometry": {
        "type": "Point",
        "coordinates": [
          145.15436113239406,
          1.8660591581265118
        ]
      }
    },
    {
      "type": "Feature",
      "properties": {
        "norad_id": 32729,
        "name": "DIRECTV 11",
        "group": "intelsat",
        "lat": 0.002482650448328831,
        "lon": 119.79005932910408,
        "alt_km": 35786.1219945831,
        "timestamp": "2025-12-06T09:34:16.585408+00:00",
        "meta_object_name": "DIRECTV 11",
        "meta_object_id": "2008-013A",
        "meta_epoch": "2025-12-05T21:47:02.789088",
        "meta_mean_motion": 1.0026924,
        "meta_eccentricity": 4.793e-05,
        "meta_inclination": 0.0051,
        "meta_ra_of_asc_node": 253.8201,
        "meta_arg_of_pericenter": 295.7852,
        "meta_mean_anomaly": 112.9152,
        "meta_ephemeris_type": 0,
        "meta_classification_type": "U",
        "meta_norad_cat_id": 32729,
        "meta_element_set_no": 999,
        "meta_rev_at_epoch": 4365,
        "meta_bstar": 0,
        "meta_mean_motion_dot": -1.16e-06,
        "meta_mean_motion_ddot": 0,
        "tle_line1": "1 32729U 08013A   25339.90767117 -.00000116  00000+0  00000+0 0  9992",
        "tle_line2": "2 32729   0.0051 253.8201 0000479 295.7852 112.9152  1.00269240 43653"
      },
      "geometry": {
        "type": "Point",
        "coordinates": [
          119.79005932910408,
          0.002482650448328831
        ]
      }
    },
    {
      "type": "Feature",
      "properties": {
        "norad_id": 32951,
        "name": "GALAXY 18 (G-18)",
        "group": "intelsat",
        "lat": 0.03205913274790075,
        "lon": 95.97404656189627,
        "alt_km": 35799.824464743055,
        "timestamp": "2025-12-06T09:34:16.585419+00:00",
        "meta_object_name": "GALAXY 18 (G-18)",
        "meta_object_id": "2008-024A",
        "meta_epoch": "2025-12-05T21:40:18.433632",
        "meta_mean_motion": 1.00269762,
        "meta_eccentricity": 0.00033245,
        "meta_inclination": 0.0151,
        "meta_ra_of_asc_node": 24.606,
        "meta_arg_of_pericenter": 230.9921,
        "meta_mean_anomaly": 21.4241,
        "meta_ephemeris_type": 0,
        "meta_classification_type": "U",
        "meta_norad_cat_id": 32951,
        "meta_element_set_no": 999,
        "meta_rev_at_epoch": 4391,
        "meta_bstar": 0,
        "meta_mean_motion_dot": 3.5e-07,
        "meta_mean_motion_ddot": 0,
        "tle_line1": "1 32951U 08024A   25339.90299113  .00000035  00000+0  00000+0 0  9996",
        "tle_line2": "2 32951   0.0151  24.6060 0003324 230.9921  21.4241  1.00269762 43919"
      },
      "geometry": {
        "type": "Point",
        "coordinates": [
          95.97404656189627,
          0.03205913274790075
        ]
      }
    },
    {
      "type": "Feature",
      "properties": {
        "norad_id": 33153,
        "name": "INTELSAT 25 (IS-25)",
        "group": "intelsat",
        "lat": 2.1248479922014507,
        "lon": -172.54132923104257,
        "alt_km": 35780.33850695652,
        "timestamp": "2025-12-06T09:34:16.585431+00:00",
        "meta_object_name": "INTELSAT 25 (IS-25)",
        "meta_object_id": "2008-034A",
        "meta_epoch": "2025-12-05T22:06:23.434848",
        "meta_mean_motion": 1.00270838,
        "meta_eccentricity": 0.00054471,
        "meta_inclination": 2.2092,
        "meta_ra_of_asc_node": 82.7229,
        "meta_arg_of_pericenter": 180.3411,
        "meta_mean_anomaly": 112.0124,
        "meta_ephemeris_type": 0,
        "meta_classification_type": "U",
        "meta_norad_cat_id": 33153,
        "meta_element_set_no": 999,
        "meta_rev_at_epoch": 6375,
        "meta_bstar": 0,
        "meta_mean_motion_dot": -2.16e-06,
        "meta_mean_motion_ddot": 0,
        "tle_line1": "1 33153U 08034A   25339.92110457 -.00000216  00000+0  00000+0 0  9999",
        "tle_line2": "2 33153   2.2092  82.7229 0005447 180.3411 112.0124  1.00270838 63751"
      },
      "geometry": {
        "type": "Point",
        "coordinates": [
          -172.54132923104257,
          2.1248479922014507
        ]
      }
    }
  ]
}